IRIDIUM 57              
1 25273U 98019B   24258.52146252  .00001536  00000+0  52854-3 0  9995
2 25273  86.3900 260.6825 0002219  90.7357 269.4094 14.35397414385237
IRIDIUM 63              
1 25286U 98021B   24258.57998875  .00002437  00000+0  83264-3 0  9993
2 25286  86.4043 197.5975 0002638  85.9771 274.1727 14.35996792384289
IRIDIUM 69              
1 25319U 98026A   24258.59338619  .00003403  00000+0  10693-2 0  9990
2 25319  86.4006 211.6938 0002245 144.8001 215.3346 14.40255128383388
IRIDIUM 71              
1 25320U 98026B   24258.57427565  .00002658  00000+0  82869-3 0  9995
2 25320  86.4019 206.4491 0000502  46.5374 313.5867 14.40561598383903
IRIDIUM 73              
1 25344U 98032C   24258.48826248  .00003059  00000+0  77078-3 0  9991
2 25344  86.4489 163.8235 0002201  98.4409 261.7045 14.50879150390575
